NUSAT-1 (FRESCO)        
1 41557U 16033B   22242.27818779  .00007608  00000+0  21788-3 0  9995
2 41557  97.3905 340.1861 0011793 111.5437 307.3235 15.36146544348718
BEESAT-4                
1 41619U 16040W   22241.92407639  .00012615  00000+0  40040-3 0  9998
2 41619  97.2101 290.6520 0008577 202.1462 157.9412 15.32765179331979
CAS-2T & KS-1Q          
1 41847U 16066G   22242.13532530  .00000249  00000+0  47676-4 0  9995
2 41847  98.5454 306.7063 0363194 349.6541   9.7310 14.38703294304945
NAYIF-1 (EO-88)         
1 42017U 17008BX  22242.13220805  .00010468  00000+0  29531-3 0  9994
2 42017  97.2626 307.2573 0003931   2.5290 357.5974 15.36573170308389
ZHUHAI-1 02 (CAS-4B)    
1 42759U 17034B   22242.23338387  .00001423  00000+0  93471-4 0  9998
2 42759  43.0186 285.8930 0009178  25.3284  87.2052 15.12322034287526
ZHUHAI-1 01 (CAS-4A)    
1 42761U 17034D   22242.18663185  .00001337  00000+0  88405-4 0  9997
2 42761  43.0181 284.8834 0009619  26.6959  19.0935 15.12405693287525
MAX VALIER SAT          
1 42778U 17036P   22241.82452357  .00008112  00000+0  29934-3 0  9993
2 42778  97.1993 280.4302 0012310  70.6941 289.5629 15.27950606288102
RADFXSAT (FOX-1B)       
1 43017U 17073E   22241.64678707  .00002700  00000+0  20643-3 0  9995
2 43017  97.6643 132.8327 0245873 308.3385  49.5955 14.81879765257958
FOX-1D (AO-92)          
1 43137U 18004AC  22241.67371535  .00007300  00000+0  24967-3 0  9999
2 43137  97.3643 316.2135 0009090 102.1536 258.0723 15.30518597257543
DIWATA-2B               
1 43678U 18084H   22242.14331040  .00000702  00000+0  74560-4 0  9991
2 43678  97.9806  16.3167 0010839  48.6195 311.5966 14.92271790208842
ES'HAIL 2               
1 43700U 18090A   22242.12547961  .00000145  00000+0  00000+0 0  9997
2 43700   0.0175 146.8624 0001950  47.5042 214.8804  1.00271616 14014
FOX-1CLIFF (AO-95)      
1 43770U 18099N   22242.13684928  .00002212  00000+0  19825-3 0  9995
2 43770  97.6163 306.5681 0014995  34.1430 326.0745 14.96719560204031
ITASAT 1                
1 43786U 18099AE  22241.85651413  .00002167  00000+0  19372-3 0  9999
2 43786  97.6179 307.2506 0015159  28.1249 332.0789 14.96825283204038
JY1SAT (JO-97)          
1 43803U 18099AX  22242.18257945  .00001407  00000+0  12577-3 0  9994
2 43803  97.6137 307.3465 0014802  25.4112 334.7835 14.97377686204109
UWE-4                   
1 43880U 18111E   22241.26088298  .00001273  00000+0  11132-3 0  9992
2 43880  97.6598 146.2936 0012764  76.7246 283.5399 14.98458764200605
NEXUS (FO-99)           
1 43937U 19003F   22242.06882552  .00011598  00000+0  37405-3 0  9992
2 43937  97.1255 272.6117 0017999 247.2272 112.7069 15.32149010201245
PSAT2 (NO-104)          
1 44354U 19036R   22241.72720133  .00058913 -52029-5  46036-3 0  9997
2 44354  28.5232  27.6332 0207376  81.1357 281.2663 15.46569971176013
JAISAT-1                
1 44419U 19038F   22241.87890957  .00007954  00000+0  39026-3 0  9994
2 44419  97.6421 212.6665 0017132 233.6303 126.3351 15.18253735174198
DUCHIFAT-3              
1 44854U 19089C   22241.80053571  .00001669  00000+0  13284-3 0  9994
2 44854  36.9674  25.3804 0006926  90.7504 269.4067 15.01453905148967
CAS-6 (TIANQIN 1)       
1 44881U 19093C   22242.11688259  .00000192  00000+0  30956-4 0  9997
2 44881  97.8905 320.2619 0013878 310.4962  49.5052 14.81793628145688
RS-44 & BREEZE-KM R/B   
1 44909U 19096E   22241.76079781  .00000030  00000+0  70360-4 0  9999
2 44909  82.5244 181.5788 0217873 148.0711 213.3811 12.79714438124889
ORBITAL FACTORY 2 (OF-2)
1 45113U 19071C   22241.87960702  .00023654  00000+0  44111-3 0  9995
2 45113  51.6372  57.2019 0008681  86.0837 274.1144 15.48646761144740
HUSKYSAT-1 (HO-107)     
1 45119U 19071J   22241.55123139  .00018885  00000+0  37111-3 0  9993
2 45119  51.6371  59.4782 0008718  80.4835 279.7138 15.47288312144672
BY70-2                  
1 45857U 20042B   22242.11026647  .00002707  00000+0  36017-3 0  9991
2 45857  97.9540 318.2772 0009371 230.6575 129.3842 14.80516561116355
SALSAT                  
1 46495U 20068K   22241.78173081  .00001878  00000+0  13731-3 0  9991
2 46495  97.7326 183.1281 0017256  33.9324 326.3002 15.04759649105218
BY70-3                  
1 46839U 20079N   22242.15854045  .00015493  00000+0  33348-3 0  9997
2 46839  97.1934 313.4068 0006268  71.6592  12.1509 15.44691590101613
RADFXSAT-2 (AO-109)     
1 47311U 21002C   22242.12580143  .00004594  00000+0  18476-3 0  9997
2 47311  60.6837  84.7068 0029307  28.9652 331.3055 15.26248047 89718
UVSQ-SAT                
1 47438U 21006AB  22241.60952303  .00003770  00000+0  19732-3 0  9995
2 47438  97.4310 299.1282 0012226  29.0957 331.0955 15.16370951 88369
DIY-1 (ARDUIQUBE)       
1 47963U 21022AH  22241.68806806  .00010860  00000+0  57863-3 0  9995
2 47963  97.5233 142.2666 0014189 235.7640 124.2249 15.15289612 78039
XW-3 (CAS-9)            
1 50466U 21131B   22242.18011284  .00000011  00000+0  18169-4 0  9996
2 50466  98.5774 319.3891 0003322 292.2732  67.8103 14.38517115 35519
TEVEL-3                 
1 50988U 22002E   22242.28003013  .00003166  00000+0  17208-3 0  9991
2 50988  97.4770 308.0482 0010108 160.2913 272.6014 15.15178564 34599
TEVEL-8                 
1 50989U 22002F   22242.15319020  .00003262  00000+0  17743-3 0  9997
2 50989  97.4781 307.9502 0010408 159.6392 260.1285 15.15125627 34571
TEVEL-5                 
1 50998U 22002Q   22242.14189946  .00003269  00000+0  17506-3 0  9992
2 50998  97.4762 308.0486 0011705 157.7108 256.9983 15.15671113 34583
TEVEL-6                 
1 50999U 22002R   22242.27675970  .00003279  00000+0  17553-3 0  9997
2 50999  97.4763 308.1801 0011759 156.7022 276.4269 15.15676659 34607
TEVEL-1                 
1 51013U 22002AF  22242.14879288  .00003187  00000+0  17333-3 0  9993
2 51013  97.4766 307.8972 0009967 160.7192 258.1537 15.15151836 34570
TEVEL-7                 
1 51062U 22002CG  22242.15353743  .00003312  00000+0  18011-3 0  9995
2 51062  97.4778 307.9350 0010236 159.3299 252.8184 15.15117888 34579
TEVEL-4                 
1 51063U 22002CH  22242.15439726  .00003321  00000+0  18068-3 0  9994
2 51063  97.4777 307.9328 0010283 159.3313 252.6988 15.15108566 34576
TEVEL-2                 
1 51069U 22002CP  22242.28137780  .00003180  00000+0  17286-3 0  9993
2 51069  97.4763 308.0355 0010209 160.0322 272.7534 15.15171320 34596
YUZGU 9 (RS3S)          
1 53308U 98067TT  22242.23114729  .00026172  00000+0  42378-3 0  9994
2 53308  51.6421 329.4064 0001116 143.1292 216.9775 15.52616324  6210
YUZGU 7 (RS1S)          
1 53309U 98067TU  22242.23004792  .00026596  00000+0  42946-3 0  9994
2 53309  51.6419 329.3981 0001449 184.3699 175.7279 15.52684042  6169
YUZGU 11 (RS5S)         
1 53310U 98067TV  22242.23072370  .00025906  00000+0  41977-3 0  9990
2 53310  51.6423 329.4042 0001205 186.5487 173.5487 15.52603094  6192
YUZGU 12 (RS6S)         
1 53311U 98067TW  22242.22769218  .00027709  00000+0  44486-3 0  9995
2 53311  51.6417 329.3822 0001071 118.9399 241.1699 15.52821288  6210
TSIOLKOVSKY-RYAZAN 1 (*)
1 53312U 98067TX  22242.22869820  .00026746  00000+0  43095-3 0  9991
2 53312  51.6422 329.3894 0001613 189.9759 170.1200 15.52740925  6156
TSIOLKOVSKY-RYAZAN 2 (*)
1 53313U 98067TY  22242.22758020  .00026321  00000+0  42365-3 0  9999
2 53313  51.6421 329.3826 0001189 203.1934 156.9003 15.52780084  6202
YUZGU 10 (RS4S)         
1 53321U 98067TZ  22242.23163588  .00026602  00000+0  43063-3 0  9996
2 53321  51.6425 329.4113 0001097 161.6626 198.4404 15.52613765  6206
RS29S (SXC3-2110 CYCLO*)
1 53373U 22096D   22242.13028006  .00004234  00000+0  17447-3 0  9990
2 53373  97.4355 143.4419 0003573  96.6321  10.0076 15.24633064  3176
RS32S (SXC3-212 MONITO*)
1 53374U 22096E   22242.20271384  .00004434  00000+0  18198-3 0  9994
2 53374  97.4351 143.5176 0003750  93.8619  58.0166 15.24741927  3181
RS34S (SXC3-218 KUZBAS*)
1 53375U 22096F   22242.20252683  .00003995  00000+0  16424-3 0  9997
2 53375  97.4345 143.5186 0003644  89.6456  62.2323 15.24741117  3183
RS23S (SXC3-21 UTMN)    
1 53376U 22096G   22242.20203123  .00003776  00000+0  15525-3 0  9991
2 53376  97.4357 143.5177 0003793  88.2793  63.6614 15.24780269  3180
RS28S (SXC3-214 MIET-A*)
1 53377U 22096H   22242.20166431  .00003805  00000+0  15629-3 0  9990
2 53377  97.4354 143.5187 0003692  90.3767  61.6711 15.24805883  3188
RS26S (KAI-1)           
1 53378U 22096J   22242.20118994  .00003299  00000+0  13581-3 0  9994
2 53378  97.4350 143.5192 0003713  85.7481  66.3037 15.24829433  3186
RS19S (SXC3-219 ISOI)   
1 53381U 22096M   22242.19555723  .00003994  00000+0  16176-3 0  9996
2 53381  97.4344 143.5278 0005355  37.4086 114.2001 15.25246543  3187
RS21S (CUBESX-HSE-2)    
1 53383U 22096P   22242.12628692  .00003699  00000+0  14976-3 0  9995
2 53383  97.4349 143.4601 0005422  38.3739  97.7553 15.25304938  3172
RS30S (SXC3-217 SIREN)  
1 53384U 22096Q   22242.12609872  .00003345  00000+0  13562-3 0  9993
2 53384  97.4349 143.4608 0005423  38.4388  98.2618 15.25321525  3171
RS20S (GEOSCAN-EDELVEIS)
1 53385U 22096R   22242.12403160  .00004635  00000+0  18578-3 0  9991
2 53385  97.4344 143.4632 0006011  35.4989 101.5147 15.25501550  3209
RS33S (SXC3-215 VIZARD) 
1 53386U 22096S   22242.12112009  .00005542  00000+0  21995-3 0  9996
2 53386  97.4339 143.4664 0006649  35.5926 102.0330 15.25747071  3196
CUTE-1 (CO-55)          
1 27844U 03031E   22241.29872597  .00000120  00000+0  73452-4 0  9999
2 27844  98.6801 247.8890 0008672 249.0154 111.0097 14.22484589994227
CUBESAT XI-IV (CO-57)   
1 27848U 03031J   22241.84738615  .00000181  00000+0  10143-3 0  9990
2 27848  98.6847 248.9336 0008537 263.5603  96.4603 14.22038094994111
CUBESAT XI-V            
1 28895U 05043F   22241.83499675  .00000806  00000+0  16122-3 0  9994
2 28895  98.1161  12.1238 0015292 270.2006  89.7444 14.64443182898382
